[{"OBJECT_NAME":"STARLINK-31599","OBJECT_ID":"2024-057H","EPOCH":"2025-12-28T00:56:41.015040","MEAN_MOTION":15.2757806,"ECCENTRICITY":0.00015462,"INCLINATION":43.002,"RA_OF_ASC_NODE":231.5044,"ARG_OF_PERICENTER":269.7588,"MEAN_ANOMALY":90.3087,"EPHEMERIS_TYPE":0,"CLASSIFICATION_TYPE":"U","NORAD_CAT_ID":59327,"ELEMENT_SET_NO":999,"REV_AT_EPOCH":9888,"BSTAR":3.231473e-6,"MEAN_MOTION_DOT":-1.73e-6,"MEAN_MOTION_DDOT":0},{"OBJECT_NAME":"STARLINK-31614","OBJECT_ID":"2024-057J","EPOCH":"2025-12-27T23:57:42.875424","MEAN_MOTION":15.2756697,"ECCENTRICITY":7.711e-5,"INCLINATION":42.9978,"RA_OF_ASC_NODE":232.0513,"ARG_OF_PERICENTER":263.0805,"MEAN_ANOMALY":96.9959,"EPHEMERIS_TYPE":0,"CLASSIFICATION_TYPE":"U","NORAD_CAT_ID":59328,"ELEMENT_SET_NO":999,"REV_AT_EPOCH":9887,"BSTAR":2.158867e-6,"MEAN_MOTION_DOT":-2.02e-6,"MEAN_MOTION_DDOT":0},{"OBJECT_NAME":"STARLINK-31493","OBJECT_ID":"2024-057K","EPOCH":"2025-12-28T01:07:47.321472","MEAN_MOTION":15.27578621,"ECCENTRICITY":0.0001252,"INCLINATION":42.9983,"RA_OF_ASC_NODE":231.5642,"ARG_OF_PERICENTER":284.338,"MEAN_ANOMALY":75.7332,"EPHEMERIS_TYPE":0,"CLASSIFICATION_TYPE":"U","NORAD_CAT_ID":59329,"ELEMENT_SET_NO":999,"REV_AT_EPOCH":9888,"BSTAR":6.3927333e-5,"MEAN_MOTION_DOT":1.497e-5,"MEAN_MOTION_DDOT":0},{"OBJECT_NAME":"STARLINK-31634","OBJECT_ID":"2024-057L","EPOCH":"2025-12-28T01:44:47.615712","MEAN_MOTION":15.27575628,"ECCENTRICITY":0.0001059,"INCLINATION":43.001,"RA_OF_ASC_NODE":231.746,"ARG_OF_PERICENTER":276.7517,"MEAN_ANOMALY":83.3214,"EPHEMERIS_TYPE":0,"CLASSIFICATION_TYPE":"U","NORAD_CAT_ID":59330,"ELEMENT_SET_NO":999,"REV_AT_EPOCH":9888,"BSTAR":2.649366e-5,"MEAN_MOTION_DOT":4.67e-6,"MEAN_MOTION_DDOT":0},{"OBJECT_NAME":"STARLINK-31633","OBJECT_ID":"2024-057M","EPOCH":"2025-12-28T00:06:55.526976","MEAN_MOTION":15.27586062,"ECCENTRICITY":0.00013188,"INCLINATION":42.9997,"RA_OF_ASC_NODE":232.093,"ARG_OF_PERICENTER":268.9015,"MEAN_ANOMALY":91.1686,"EPHEMERIS_TYPE":0,"CLASSIFICATION_TYPE":"U","NORAD_CAT_ID":59331,"ELEMENT_SET_NO":999,"REV_AT_EPOCH":9887,"BSTAR":0.00010066281,"MEAN_MOTION_DOT":2.509e-5,"MEAN_MOTION_DDOT":0},{"OBJECT_NAME":"STARLINK-31594","OBJECT_ID":"2024-057N","EPOCH":"2025-12-28T01:26:15.847296","MEAN_MOTION":15.27576539,"ECCENTRICITY":7.261e-5,"INCLINATION":43.0012,"RA_OF_ASC_NODE":242.8983,"ARG_OF_PERICENTER":319.1655,"MEAN_ANOMALY":40.9142,"EPHEMERIS_TYPE":0,"CLASSIFICATION_TYPE":"U","NORAD_CAT_ID":59332,"ELEMENT_SET_NO":999,"REV_AT_EPOCH":9875,"BSTAR":2.7174162e-5,"MEAN_MOTION_DOT":4.86e-6,"MEAN_MOTION_DDOT":0},{"OBJECT_NAME":"STARLINK-31572","OBJECT_ID":"2024-057P","EPOCH":"2025-12-28T01:29:57.522912","MEAN_MOTION":15.2757787,"ECCENTRICITY":0.00010755,"INCLINATION":43.0015,"RA_OF_ASC_NODE":242.9169,"ARG_OF_PERICENTER":261.5525,"MEAN_ANOMALY":98.5205,"EPHEMERIS_TYPE":0,"CLASSIFICATION_TYPE":"U","NORAD_CAT_ID":59333,"ELEMENT_SET_NO":999,"REV_AT_EPOCH":9875,"BSTAR":2.337123e-5,"MEAN_MOTION_DOT":3.81e-6,"MEAN_MOTION_DDOT":0},{"OBJECT_NAME":"STARLINK-31573","OBJECT_ID":"2024-057Q","EPOCH":"2025-12-28T00:34:29.536608","MEAN_MOTION":15.27569376,"ECCENTRICITY":7.273e-5,"INCLINATION":43.0002,"RA_OF_ASC_NODE":231.3778,"ARG_OF_PERICENTER":262.8984,"MEAN_ANOMALY":97.1785,"EPHEMERIS_TYPE":0,"CLASSIFICATION_TYPE":"U","NORAD_CAT_ID":59334,"ELEMENT_SET_NO":999,"REV_AT_EPOCH":9888,"BSTAR":-1.0386606e-5,"MEAN_MOTION_DOT":-5.47e-6,"MEAN_MOTION_DDOT":0},{"OBJECT_NAME":"STARLINK-31588","OBJECT_ID":"2024-057R","EPOCH":"2025-12-28T00:43:43.351104","MEAN_MOTION":15.27589364,"ECCENTRICITY":0.00011324,"INCLINATION":43.0014,"RA_OF_ASC_NODE":231.4303,"ARG_OF_PERICENTER":270.978,"MEAN_ANOMALY":89.0942,"EPHEMERIS_TYPE":0,"CLASSIFICATION_TYPE":"U","NORAD_CAT_ID":59335,"ELEMENT_SET_NO":999,"REV_AT_EPOCH":9888,"BSTAR":-7.4911144e-5,"MEAN_MOTION_DOT":-2.323e-5,"MEAN_MOTION_DDOT":0},{"OBJECT_NAME":"STARLINK-31596","OBJECT_ID":"2024-057S","EPOCH":"2025-12-28T00:49:17.203296","MEAN_MOTION":15.27579221,"ECCENTRICITY":0.00012499,"INCLINATION":43.0023,"RA_OF_ASC_NODE":231.4608,"ARG_OF_PERICENTER":283.7762,"MEAN_ANOMALY":76.2951,"EPHEMERIS_TYPE":0,"CLASSIFICATION_TYPE":"U","NORAD_CAT_ID":59336,"ELEMENT_SET_NO":999,"REV_AT_EPOCH":9888,"BSTAR":-9.179367e-6,"MEAN_MOTION_DOT":-5.15e-6,"MEAN_MOTION_DDOT":0},{"OBJECT_NAME":"STARLINK-31612","OBJECT_ID":"2024-057T","EPOCH":"2025-12-27T23:48:25.851168","MEAN_MOTION":15.2757809,"ECCENTRICITY":0.00010836,"INCLINATION":42.9991,"RA_OF_ASC_NODE":231.9972,"ARG_OF_PERICENTER":261.1633,"MEAN_ANOMALY":98.9096,"EPHEMERIS_TYPE":0,"CLASSIFICATION_TYPE":"U","NORAD_CAT_ID":59337,"ELEMENT_SET_NO":999,"REV_AT_EPOCH":9887,"BSTAR":2.480072e-5,"MEAN_MOTION_DOT":4.21e-6,"MEAN_MOTION_DDOT":0},{"OBJECT_NAME":"STARLINK-31550","OBJECT_ID":"2024-057U","EPOCH":"2025-12-28T00:25:24.794976","MEAN_MOTION":15.27659312,"ECCENTRICITY":0.00011362,"INCLINATION":43.0026,"RA_OF_ASC_NODE":232.1932,"ARG_OF_PERICENTER":264.6539,"MEAN_ANOMALY":95.4183,"EPHEMERIS_TYPE":0,"CLASSIFICATION_TYPE":"U","NORAD_CAT_ID":59338,"ELEMENT_SET_NO":999,"REV_AT_EPOCH":9887,"BSTAR":-0.00058849368,"MEAN_MOTION_DOT":-0.00016459,"MEAN_MOTION_DDOT":0},{"OBJECT_NAME":"STARLINK-31473","OBJECT_ID":"2024-057V","EPOCH":"2025-12-28T01:05:56.237856","MEAN_MOTION":15.27575767,"ECCENTRICITY":0.00011975,"INCLINATION":43.0012,"RA_OF_ASC_NODE":231.549,"ARG_OF_PERICENTER":278.1415,"MEAN_ANOMALY":81.9301,"EPHEMERIS_TYPE":0,"CLASSIFICATION_TYPE":"U","NORAD_CAT_ID":59339,"ELEMENT_SET_NO":999,"REV_AT_EPOCH":9888,"BSTAR":2.7050942e-5,"MEAN_MOTION_DOT":4.82e-6,"MEAN_MOTION_DDOT":0},{"OBJECT_NAME":"STARLINK-31562","OBJECT_ID":"2024-057W","EPOCH":"2025-12-28T01:49:36.812064","MEAN_MOTION":15.27585781,"ECCENTRICITY":0.00010047,"INCLINATION":43.0035,"RA_OF_ASC_NODE":246.4933,"ARG_OF_PERICENTER":270.5801,"MEAN_ANOMALY":89.4936,"EPHEMERIS_TYPE":0,"CLASSIFICATION_TYPE":"U","NORAD_CAT_ID":59340,"ELEMENT_SET_NO":999,"REV_AT_EPOCH":9871,"BSTAR":3.7578678e-5,"MEAN_MOTION_DOT":7.72e-6,"MEAN_MOTION_DDOT":0},{"OBJECT_NAME":"STARLINK-31600","OBJECT_ID":"2024-057X","EPOCH":"2025-12-28T01:12:09.643968","MEAN_MOTION":15.27572097,"ECCENTRICITY":0.00011408,"INCLINATION":43.0027,"RA_OF_ASC_NODE":239.3624,"ARG_OF_PERICENTER":264.4368,"MEAN_ANOMALY":95.6354,"EPHEMERIS_TYPE":0,"CLASSIFICATION_TYPE":"U","NORAD_CAT_ID":59341,"ELEMENT_SET_NO":999,"REV_AT_EPOCH":9879,"BSTAR":-3.0550959e-5,"MEAN_MOTION_DOT":-1.102e-5,"MEAN_MOTION_DDOT":0},{"OBJECT_NAME":"STARLINK-31628","OBJECT_ID":"2024-057Y","EPOCH":"2025-12-28T00:01:22.860192","MEAN_MOTION":15.27578151,"ECCENTRICITY":0.00010054,"INCLINATION":43.0001,"RA_OF_ASC_NODE":232.0642,"ARG_OF_PERICENTER":270.0918,"MEAN_ANOMALY":89.9819,"EPHEMERIS_TYPE":0,"CLASSIFICATION_TYPE":"U","NORAD_CAT_ID":59342,"ELEMENT_SET_NO":999,"REV_AT_EPOCH":9887,"BSTAR":1.3008495e-5,"MEAN_MOTION_DOT":9.6e-7,"MEAN_MOTION_DDOT":0}]
