STARLINK-31599          
1 59327U 24057H   25362.03936360 -.00000173  00000+0  32315-5 0  9992
2 59327  43.0020 231.5044 0001546 269.7588  90.3087 15.27578060 98888
STARLINK-31614          
1 59328U 24057J   25361.99841291 -.00000202  00000+0  21589-5 0  9999
2 59328  42.9978 232.0513 0000771 263.0805  96.9959 15.27566970 98870
STARLINK-31493          
1 59329U 24057K   25362.04707548  .00001497  00000+0  63927-4 0  9990
2 59329  42.9983 231.5642 0001252 284.3380  75.7332 15.27578621 98880
STARLINK-31634          
1 59330U 24057L   25362.07277333  .00000467  00000+0  26494-4 0  9993
2 59330  43.0010 231.7460 0001059 276.7517  83.3214 15.27575628 98885
STARLINK-31633          
1 59331U 24057M   25362.00480934  .00002509  00000+0  10066-3 0  9996
2 59331  42.9997 232.0930 0001318 268.9015  91.1686 15.27586062 98871
STARLINK-31594          
1 59332U 24057N   25362.05990564  .00000486  00000+0  27174-4 0  9998
2 59332  43.0012 242.8983 0000726 319.1655  40.9142 15.27576539 98754
STARLINK-31572          
1 59333U 24057P   25362.06247133  .00000381  00000+0  23371-4 0  9996
2 59333  43.0015 242.9169 0001075 261.5525  98.5205 15.27577870 98757
STARLINK-31573          
1 59334U 24057Q   25362.02395297 -.00000547  00000+0 -10387-4 0  9997
2 59334  43.0002 231.3778 0000727 262.8984  97.1785 15.27569376 98882
STARLINK-31588          
1 59335U 24057R   25362.03036286 -.00002323  00000+0 -74911-4 0  9996
2 59335  43.0014 231.4303 0001132 270.9780  89.0942 15.27589364 98880
STARLINK-31596          
1 59336U 24057S   25362.03422689 -.00000515  00000+0 -91794-5 0  9993
2 59336  43.0023 231.4608 0001249 283.7762  76.2951 15.27579221 98889
STARLINK-31612          
1 59337U 24057T   25361.99196587  .00000421  00000+0  24801-4 0  9991
2 59337  42.9991 231.9972 0001083 261.1633  98.9096 15.27578090 98877
STARLINK-31550          
1 59338U 24057U   25362.01764809 -.00016459  00000+0 -58849-3 0  9992
2 59338  43.0026 232.1932 0001136 264.6539  95.4183 15.27659312 98876
STARLINK-31473          
1 59339U 24057V   25362.04578979  .00000482  00000+0  27051-4 0  9996
2 59339  43.0012 231.5490 0001197 278.1415  81.9301 15.27575767 98888
STARLINK-31562          
1 59340U 24057W   25362.07612051  .00000772  00000+0  37579-4 0  9999
2 59340  43.0035 246.4933 0001004 270.5801  89.4936 15.27585781 98710
STARLINK-31600          
1 59341U 24057X   25362.05011162 -.00001102  00000+0 -30551-4 0  9997
2 59341  43.0027 239.3624 0001140 264.4368  95.6354 15.27572097 98798
STARLINK-31628          
1 59342U 24057Y   25362.00095903  .00000096  00000+0  13008-4 0  9995
2 59342  43.0001 232.0642 0001005 270.0918  89.9819 15.27578151 98873
